$$SOE
2460721.500000000, A.D. 2025-Feb-15 00:00:00.0000, -2.322360670160937E+08, 1.587341199655122E+08, -2.384482691596208E+07,
2460728.500000000, A.D. 2025-Feb-22 00:00:00.0000, -2.379359304706138E+08, 1.465747155568505E+08, -2.860371776949300E+07,
2460735.500000000, A.D. 2025-Mar-01 00:00:00.0000, -2.431148278275897E+08, 1.340944862055830E+08, -3.329995876223380E+07,
2460742.500000000, A.D. 2025-Mar-08 00:00:00.0000, -2.477540550857896E+08, 1.213166836456562E+08, -3.792226069380934E+07,
2460749.500000000, A.D. 2025-Mar-15 00:00:00.0000, -2.518363185563161E+08, 1.082662372630697E+08, -4.245929459484349E+07,
2460756.500000000, A.D. 2025-Mar-22 00:00:00.0000, -2.553459061431600E+08, 9.496966781678033E+07, -4.689976145820398E+07,
2460763.500000000, A.D. 2025-Mar-29 00:00:00.0000, -2.582688492794302E+08, 8.145497654191867E+07, -5.123246581798035E+07,
2460770.500000000, A.D. 2025-Apr-05 00:00:00.0000, -2.605930718952263E+08, 6.775151322204247E+07, -5.544639191276622E+07,
2460777.500000000, A.D. 2025-Apr-12 00:00:00.0000, -2.623085250887268E+08, 5.388982436871513E+07, -5.953078108127044E+07,
2460784.500000000, A.D. 2025-Apr-19 00:00:00.0000, -2.634073045828043E+08, 3.990148226666790E+07, -6.347520916949843E+07,
2460791.500000000, A.D. 2025-Apr-26 00:00:00.0000, -2.638837478489535E+08, 2.581889689417059E+07, -6.726966263007101E+07,
2460798.500000000, A.D. 2025-May-03 00:00:00.0000, -2.637345083284171E+08, 1.167511347486829E+07, -7.090461192358351E+07,
2460805.500000000, A.D. 2025-May-10 00:00:00.0000, -2.629586047685140E+08, -2.496401130190674E+06, -7.437108084145389E+07,
2460812.500000000, A.D. 2025-May-17 00:00:00.0000, -2.615574442722333E+08, -1.666197965756405E+07, -7.766071044207047E+07,
2460819.500000000, A.D. 2025-May-24 00:00:00.0000, -2.595348181704865E+08, -3.078797952392150E+07, -8.076581642070952E+07,
2460826.500000000, A.D. 2025-May-31 00:00:00.0000, -2.568968702641560E+08, -4.484100748015589E+07, -8.367943888384962E+07,
2460833.500000000, A.D. 2025-Jun-07 00:00:00.0000, -2.536520384864638E+08, -5.878813867398943E+07, -8.639538354391152E+07,
2460840.500000000, A.D. 2025-Jun-14 00:00:00.0000, -2.498109736596221E+08, -7.259712697502333E+07, -8.890825354626083E+07,
2460847.500000000, A.D. 2025-Jun-21 00:00:00.0000, -2.453864360486706E+08, -8.623660629387346E+07, -9.121347192664050E+07,
2460854.500000000, A.D. 2025-Jun-28 00:00:00.0000, -2.403931690304985E+08, -9.967627797001439E+07, -9.330729470929797E+07,
2460861.500000000, A.D. 2025-Jul-05 00:00:00.0000, -2.348477542565788E+08, -1.128870793826714E+08, -9.518681443315056E+07,
2460868.500000000, A.D. 2025-Jul-12 00:00:00.0000, -2.287684526650600E+08, -1.258413324500288E+08, -9.684995438870080E+07,
2460875.500000000, A.D. 2025-Jul-19 00:00:00.0000, -2.221750345082424E+08, -1.385128710433952E+08, -9.829545416623816E+07,
2460882.500000000, A.D. 2025-Jul-26 00:00:00.0000, -2.150886016138884E+08, -1.508771464203297E+08, -9.952284725513253E+07,
2460889.500000000, A.D. 2025-Aug-02 00:00:00.0000, -2.075314051964843E+08, -1.629113102817119E+08, -1.005324315516149E+08,
2460896.500000000, A.D. 2025-Aug-09 00:00:00.0000, -1.995266624240979E+08, -1.745942756407250E+08, -1.013252337288745E+08,
2460903.500000000, A.D. 2025-Aug-16 00:00:00.0000, -1.910983746551816E+08, -1.859067562344343E+08, -1.019029684931897E+08,
2460910.500000000, A.D. 2025-Aug-23 00:00:00.0000, -1.822711497396903E+08, -1.968312855541409E+08, -1.022679937883987E+08,
2460917.500000000, A.D. 2025-Aug-30 00:00:00.0000, -1.730700303901903E+08, -2.073522162200121E+08, -1.024232629486825E+08,
2460924.500000000, A.D. 2025-Sep-06 00:00:00.0000, -1.635203319930914E+08, -2.174557004040614E+08, -1.023722745771206E+08,
2460931.500000000, A.D. 2025-Sep-13 00:00:00.0000, -1.536474930884731E+08, -2.271296556747127E+08, -1.021190211272340E+08,
2460938.500000000, A.D. 2025-Sep-20 00:00:00.0000, -1.434769364177186E+08, -2.363637199103558E+08, -1.016679374728896E+08,
2460945.500000000, A.D. 2025-Sep-27 00:00:00.0000, -1.330339402875582E+08, -2.451491942128457E+08, -1.010238500682139E+08,
2460952.500000000, A.D. 2025-Oct-04 00:00:00.0000, -1.223435227335618E+08, -2.534789753000585E+08, -1.001919271238299E+08,
2460959.500000000, A.D. 2025-Oct-11 00:00:00.0000, -1.114303390170718E+08, -2.613474802658020E+08, -9.917763039155795E+07,
2460966.500000000, A.D. 2025-Oct-18 00:00:00.0000, -1.003185920662563E+08, -2.687505658149985E+08, -9.798666905131900E+07,
2460973.500000000, A.D. 2025-Oct-25 00:00:00.0000, -8.903195539188780E+07, -2.756854436571672E+08, -9.662495605965014E+07,
2460980.500000000, A.D. 2025-Nov-01 00:00:00.0000, -7.759350792920756E+07, -2.821505935790092E+08, -9.509856722061551E+07,
2460987.500000000, A.D. 2025-Nov-08 00:00:00.0000, -6.602568012585945E+07, -2.881456755929201E+08, -9.341370316090043E+07,
2460994.500000000, A.D. 2025-Nov-15 00:00:00.0000, -5.435021038222052E+07, -2.936714424079927E+08, -9.157665432783490E+07,
2461001.500000000, A.D. 2025-Nov-22 00:00:00.0000, -4.258811062672281E+07, -2.987296530160539E+08, -8.959376906398484E+07,
2461008.500000000, A.D. 2025-Nov-29 00:00:00.0000, -3.075964032530523E+07, -3.033229871022702E+08, -8.747142463144295E+07,
2461015.500000000, A.D. 2025-Dec-06 00:00:00.0000, -1.888429033431022E+07, -3.074549611019051E+08, -8.521600092281730E+07,
2461022.500000000, A.D. 2025-Dec-13 00:00:00.0000, -6.980775301169696E+06, -3.111298498138441E+08, -8.283385707350542E+07,
2461029.500000000, A.D. 2025-Dec-20 00:00:00.0000, 4.932969717054690E+06, -3.143526129604920E+08, -8.033131108529133E+07,
2461036.500000000, A.D. 2025-Dec-27 00:00:00.0000, 1.683978813988861E+07, -3.171288243983095E+08, -7.771462200240389E+07,
2461043.500000000, A.D. 2026-Jan-03 00:00:00.0000, 2.872329554574385E+07, -3.194646047815399E+08, -7.498997439018066E+07,
2461050.500000000, A.D. 2026-Jan-10 00:00:00.0000, 4.056786896353176E+07, -3.213665584522552E+08, -7.216346500602728E+07,
2461057.500000000, A.D. 2026-Jan-17 00:00:00.0000, 5.235863266032745E+07, -3.228417146696086E+08, -6.924109151533017E+07,
2461064.500000000, A.D. 2026-Jan-24 00:00:00.0000, 6.408144110251988E+07, -3.238974731225352E+08, -6.622874308714557E+07,
2461071.500000000, A.D. 2026-Jan-31 00:00:00.0000, 7.572285965335295E+07, -3.245415536580673E+08, -6.313219270834263E+07,
2461078.500000000, A.D. 2026-Feb-07 00:00:00.0000, 8.727014354673336E+07, -3.247819501719887E+08, -5.995709106700155E+07,
2461085.500000000, A.D. 2026-Feb-14 00:00:00.0000, 9.871121581069313E+07, -3.246268885353364E+08, -5.670896187370592E+07,
2461092.500000000, A.D. 2026-Feb-21 00:00:00.0000, 1.100346448961397E+08, -3.240847878111848E+08, -5.339319845843695E+07,
2461099.500000000, A.D. 2026-Feb-28 00:00:00.0000, 1.212296212476464E+08, -3.231642234196297E+08, -5.001506130654724E+07,
2461106.500000000, A.D. 2026-Mar-07 00:00:00.0000, 1.322859310370441E+08, -3.218738939989440E+08, -4.657967637155922E+07,
2461113.500000000, A.D. 2026-Mar-14 00:00:00.0000, 1.431939300773283E+08, -3.202225940881295E+08, -4.309203448843862E+07,
2461120.500000000, A.D. 2026-Mar-21 00:00:00.0000, 1.539445199068491E+08, -3.182191895285374E+08, -3.955699170385648E+07,
2461127.500000000, A.D. 2026-Mar-28 00:00:00.0000, 1.645291242075669E+08, -3.158725943558801E+08, -3.597927015481365E+07,
2461134.500000000, A.D. 2026-Apr-04 00:00:00.0000, 1.749396650964907E+08, -3.131917499518477E+08, -3.236345942791489E+07,
2461141.500000000, A.D. 2026-Apr-11 00:00:00.0000, 1.851685396810151E+08, -3.101856066246274E+08, -2.871401837133357E+07,
2461148.500000000, A.D. 2026-Apr-18 00:00:00.0000, 1.952085971313124E+08, -3.068631074421397E+08, -2.503527730046052E+07,
2461155.500000000, A.D. 2026-Apr-25 00:00:00.0000, 2.050531163889481E+08, -3.032331741287481E+08, -2.133144053385308E+07,
2461162.500000000, A.D. 2026-May-02 00:00:00.0000, 2.146957845981059E+08, -2.993046948885213E+08, -1.760658920568842E+07,
2461169.500000000, A.D. 2026-May-09 00:00:00.0000, 2.241306764261536E+08, -2.950865140635070E+08, -1.386468431951304E+07,
2461176.500000000, A.D. 2026-May-16 00:00:00.0000, 2.333522346830254E+08, -2.905874233425914E+08, -1.010957002086107E+07,
2461183.500000000, A.D. 2026-May-23 00:00:00.0000, 2.423552523117105E+08, -2.858161533652984E+08, -6.344976969469398E+06,
2461190.500000000, A.D. 2026-May-30 00:00:00.0000, 2.511348536799307E+08, -2.807813652772090E+08, -2.574525558706120E+06,
2461197.500000000, A.D. 2026-Jun-06 00:00:00.0000, 2.596864748544856E+08, -2.754916453923703E+08, 1.198270810145035E+06,
2461204.500000000, A.D. 2026-Jun-13 00:00:00.0000, 2.680058465184213E+08, -2.699555026527455E+08, 4.970002105046228E+06,
2461211.500000000, A.D. 2026-Jun-20 00:00:00.0000, 2.760889790214257E+08, -2.641813658587352E+08, 8.737357999526501E+06,
2461218.500000000, A.D. 2026-Jun-27 00:00:00.0000, 2.839321478520290E+08, -2.581775809204258E+08, 1.249712431567194E+07,
2461225.500000000, A.D. 2026-Jul-04 00:00:00.0000, 2.915318795143957E+08, -2.519524088215095E+08, 1.624617952710596E+07,
2461232.500000000, A.D. 2026-Jul-11 00:00:00.0000, 2.988849380439256E+08, -2.455140243517784E+08, 1.998149130200417E+07,
2461239.500000000, A.D. 2026-Jul-18 00:00:00.0000, 3.059883122328022E+08, -2.388705155134172E+08, 2.370011309168845E+07,
2461246.500000000, A.D. 2026-Jul-25 00:00:00.0000, 3.128392035665150E+08, -2.320298835359444E+08, 2.739918077279793E+07,
2461253.500000000, A.D. 2026-Aug-01 00:00:00.0000, 3.194350148939599E+08, -2.250000434910171E+08, 3.107590934276919E+07,
2461260.500000000, A.D. 2026-Aug-08 00:00:00.0000, 3.257733400192830E+08, -2.177888254900010E+08, 3.472758965217163E+07,
2461267.500000000, A.D. 2026-Aug-15 00:00:00.0000, 3.318519546052351E+08, -2.104039759650928E+08, 3.835158517766210E+07,
2461274.500000000, A.D. 2026-Aug-22 00:00:00.0000, 3.376688076038335E+08, -2.028531577705396E+08, 4.194532900979349E+07,
2461281.500000000, A.D. 2026-Aug-29 00:00:00.0000, 3.432220109006240E+08, -1.951439504402906E+08, 4.550632115692640E+07,
$$EOE